NORAD_CAT_ID,OBJECT_NAME,OBJECT_TYPE,EPOCH,MEAN_MOTION,ECCENTRICITY,INCLINATION,RA_OF_ASC_NODE,ARG_OF_PERICENTER,MEAN_ANOMALY,BSTAR,MEAN_MOTION_DOT,MEAN_MOTION_DDOT,TLE_LINE0,TLE_LINE1,TLE_LINE2,SEMIMAJOR_AXIS,PERIOD,APOGEE,PERIGEE,DECAYED
55943.0,STARLINK-5932,PAYLOAD,2023-10-06 14:11:34,14.98334039,0.0003019,70.0014,355.9977,265.7805,94.301,2.3242e-05,1.84e-06,0.0,0 STARLINK-5932,1 55943U 23037AF  23279.59137002  .00000184  00000-0  23242-4 0  9991,2 55943  70.0014 355.9977 0003019 265.7805  94.3010 14.98334039 31400,6950.18,96.107,574.144,569.947,0.0
55943.0,STARLINK-5932,PAYLOAD,2023-10-06 22:12:14,14.98337452,0.0002929,70.0013,355.1567,264.2093,95.8732,-6.8897e-05,-9.15e-06,0.0,0 STARLINK-5932,1 55943U 23037AF  23279.92516884 -.00000915  00000-0 -68897-4 0  9996,2 55943  70.0013 355.1567 0002929 264.2093  95.8732 14.98337452 31799,6950.17,96.107,574.071,569.999,0.0
55943.0,STARLINK-5932,PAYLOAD,2023-10-07 11:01:19,14.98323201,0.0002935,70.0015,353.81,258.701,101.382,0.00012009,1.34e-05,0.0,0 STARLINK-5932,1 55943U 23037AF  23280.45925309  .00001340  00000-0  12009-3 0  9996,2 55943  70.0015 353.8100 0002935 258.7010 101.3820 14.98323201 31870,6950.214,96.107,574.119,570.039,0.0
55943.0,STARLINK-5932,PAYLOAD,2023-10-07 14:13:35,14.98325435,0.0002883,70.0017,353.4733,259.6099,100.4735,0.00012044,1.344e-05,0.0,0 STARLINK-5932,1 55943U 23037AF  23280.59277219  .00001344  00000-0  12044-3 0  9994,2 55943  70.0017 353.4733 0002883 259.6099 100.4735 14.98325435 31550,6950.207,96.107,574.076,570.068,0.0
55943.0,STARLINK-5932,PAYLOAD,2023-10-07 22:14:15,14.98331982,0.0003149,70.0009,352.6304,263.8167,96.2633,3.8601e-05,3.68e-06,0.0,0 STARLINK-5932,1 55943U 23037AF  23280.92656936  .00000368  00000-0  38601-4 0  9991,2 55943  70.0009 352.6304 0003149 263.8167  96.2633 14.98331982 31941,6950.187,96.107,574.24,569.863,0.0
55943.0,STARLINK-5932,PAYLOAD,2023-10-08 11:03:20,14.98326233,0.0003183,70.0009,351.2826,266.9295,93.1499,1.4805e-05,8.4e-07,0.0,0 STARLINK-5932,1 55943U 23037AF  23281.46065550  .00000084  00000-0  14805-4 0  9992,2 55943  70.0009 351.2826 0003183 266.9295  93.1499 14.98326233 32028,6950.205,96.107,574.282,569.857,0.0
55943.0,STARLINK-5932,PAYLOAD,2023-10-08 12:39:28,14.98322917,0.0003006,70.0011,351.1145,265.1895,94.8921,8.5865e-05,9.31e-06,0.0,0 STARLINK-5932,1 55943U 23037AF  23281.52741584  .00000931  00000-0  85865-4 0  9992,2 55943  70.0011 351.1145 0003006 265.1895  94.8921 14.98322917 31690,6950.215,96.107,574.169,569.991,0.0
55943.0,STARLINK-5932,PAYLOAD,2023-10-08 14:15:36,14.98319437,0.0002916,70.0014,350.9464,264.5003,95.5824,0.00016328,1.855e-05,0.0,0 STARLINK-5932,1 55943U 23037AF  23281.59417630  .00001855  00000-0  16328-3 0  9994,2 55943  70.0014 350.9464 0002916 264.5003  95.5824 14.98319437 31702,6950.226,96.108,574.117,570.064,0.0
55943.0,STARLINK-5932,PAYLOAD,2023-10-09 12:41:29,14.98328204,0.0002908,70.0012,348.591,265.0427,95.04,7.8493e-05,8.44e-06,0.0,0 STARLINK-5932,1 55943U 23037AF  23282.52881251  .00000844  00000-0  78493-4 0  9991,2 55943  70.0012 348.5910 0002908 265.0427  95.0400 14.98328204 31848,6950.198,96.107,574.085,570.042,0.0
55943.0,STARLINK-5932,PAYLOAD,2023-10-09 14:17:37,14.98330195,0.000296,70.0013,348.4227,267.0075,93.0745,7.5224e-05,8.05e-06,0.0,0 STARLINK-5932,1 55943U 23037AF  23282.59557136  .00000805  00000-0  75224-4 0  9996,2 55943  70.0013 348.4227 0002960 267.0075  93.0745 14.98330195 32199,6950.192,96.107,574.115,570.0,0.0
55943.0,STARLINK-5932,PAYLOAD,2023-10-10 12:43:29,14.983341,0.0002968,70.001,346.0651,269.9034,90.1785,8.5611e-05,9.29e-06,0.0,0 STARLINK-5932,1 55943U 23037AF  23283.53020780  .00000929  00000-0  85611-4 0  9999,2 55943  70.0010 346.0651 0002968 269.9034  90.1785 14.98334100 31994,6950.18,96.107,574.108,569.982,0.0
55943.0,STARLINK-5932,PAYLOAD,2023-10-10 14:19:37,14.98335567,0.0002967,70.0011,345.8967,270.0381,90.0438,9.8736e-05,1.085e-05,0.0,0 STARLINK-5932,1 55943U 23037AF  23283.59696632  .00001085  00000-0  98736-4 0  9996,2 55943  70.0011 345.8967 0002967 270.0381  90.0438 14.98335567 32341,6950.176,96.107,574.103,569.979,0.0
55943.0,STARLINK-5932,PAYLOAD,2023-10-11 11:09:23,14.9832308,0.0002666,70.0015,343.7105,263.5779,96.5076,7.0952e-06,-8e-08,0.0,0 STARLINK-5932,1 55943U 23037AF  23284.46485654 -.00000008  00000-0  70952-5 0  9999,2 55943  70.0015 343.7105 0002666 263.5779  96.5076 14.98323080 32470,6950.214,96.107,573.932,570.226,0.0
55943.0,STARLINK-5932,PAYLOAD,2023-10-11 12:45:31,14.98322149,0.000275,70.0014,343.5425,264.8207,95.2638,-2.5197e-06,-1.23e-06,0.0,0 STARLINK-5932,1 55943U 23037AF  23284.53161799 -.00000123  00000-0 -25197-5 0  9998,2 55943  70.0014 343.5425 0002750 264.8207  95.2638 14.98322149 32145,6950.217,96.108,573.993,570.171,0.0
55943.0,STARLINK-5932,PAYLOAD,2023-10-12 12:47:31,14.98335286,0.0002666,70.0008,341.0162,267.5128,92.5725,3.0688e-05,2.73e-06,0.0,0 STARLINK-5932,1 55943U 23037AF  23285.53300791  .00000273  00000-0  30688-4 0  9990,2 55943  70.0008 341.0162 0002666 267.5128  92.5725 14.98335286 32296,6950.177,96.107,573.894,570.189,0.0
55943.0,STARLINK-5932,PAYLOAD,2023-10-13 12:49:31,14.98379823,0.0003051,70.0007,338.4919,266.1746,93.9064,-0.00083134,-0.00010011,0.0,0 STARLINK-5932,1 55943U 23037AF  23286.53439801 -.00010011  00000-0 -83134-3 0  9992,2 55943  70.0007 338.4919 0003051 266.1746  93.9064 14.98379823 32785,6950.039,96.104,574.024,569.783,0.0
55943.0,STARLINK-5932,PAYLOAD,2023-10-13 20:50:13,14.98332362,0.0002956,70.0003,337.6499,271.5706,88.5114,4.8716e-05,4.88e-06,0.0,0 STARLINK-5932,1 55943U 23037AF  23286.86820817  .00000488  00000-0  48716-4 0  9992,2 55943  70.0003 337.6499 0002956 271.5706  88.5114 14.98332362 32495,6950.186,96.107,574.105,569.996,0.0
55943.0,STARLINK-5932,PAYLOAD,2023-10-14 04:50:53,14.98332572,0.0002895,70.0005,336.8087,270.6391,89.4436,1.9329e-05,1.38e-06,0.0,0 STARLINK-5932,1 55943U 23037AF  23287.20200832  .00000138  00000-0  19329-4 0  9990,2 55943  70.0005 336.8087 0002895 270.6391  89.4436 14.98332572 32886,6950.185,96.107,574.062,570.038,0.0
55943.0,STARLINK-5932,PAYLOAD,2023-10-14 12:51:33,14.98337738,0.0002815,70.0004,335.9672,268.9705,91.1132,5.3451e-05,5.45e-06,0.0,0 STARLINK-5932,1 55943U 23037AF  23287.53580305  .00000545  00000-0  53451-4 0  9998,2 55943  70.0004 335.9672 0002815 268.9705  91.1132 14.98337738 32596,6950.169,96.107,573.99,570.077,0.0
55943.0,STARLINK-5932,PAYLOAD,2023-10-14 20:52:14,14.98323709,0.0002363,70.0019,335.124,266.706,93.3829,-8.8213e-05,-1.145e-05,0.0,0 STARLINK-5932,1 55943U 23037AF  23287.86961649 -.00001145  00000-0 -88213-4 0  9991,2 55943  70.0019 335.1240 0002363 266.7060  93.3829 14.98323709 32986,6950.212,96.107,573.72,570.435,0.0
55943.0,STARLINK-5932,PAYLOAD,2023-10-15 12:53:36,14.98317914,0.0002783,70.0003,333.4403,264.7433,95.3409,-9.8874e-05,-1.272e-05,0.0,0 STARLINK-5932,1 55943U 23037AF  23288.53722230 -.00001272  00000-0 -98874-4 0  9992,2 55943  70.0003 333.4403 0002783 264.7433  95.3409 14.98317914 32740,6950.23,96.108,574.03,570.161,0.0
55943.0,STARLINK-5932,PAYLOAD,2023-10-15 20:54:15,14.98326072,0.0003006,69.9997,332.5999,269.3379,90.7436,-7.1128e-05,-9.41e-06,0.0,0 STARLINK-5932,1 55943U 23037AF  23288.87101786 -.00000941  00000-0 -71128-4 0  9991,2 55943  69.9997 332.5999 0003006 269.3379  90.7436 14.98326072 32797,6950.205,96.107,574.159,569.981,0.0
55943.0,STARLINK-5932,PAYLOAD,2023-10-16 06:31:03,14.98330246,0.0003069,69.9994,331.5896,269.0606,91.0202,1.5688e-05,9.4e-07,0.0,0 STARLINK-5932,1 55943U 23037AF  23289.27157292  .00000094  00000-0  15688-4 0  9995,2 55943  69.9994 331.5896 0003069 269.0606  91.0202 14.98330246 33196,6950.192,96.107,574.19,569.924,0.0
55943.0,STARLINK-5932,PAYLOAD,2023-10-16 12:55:35,14.98336298,0.0003018,69.9995,330.916,268.5089,91.5724,2.9413e-05,2.58e-06,0.0,0 STARLINK-5932,1 55943U 23037AF  23289.53860836  .00000258  00000-0  29413-4 0  9992,2 55943  69.9995 330.9160 0003018 268.5089  91.5724 14.98336298 32890,6950.173,96.107,574.136,569.941,0.0
55943.0,STARLINK-5932,PAYLOAD,2023-10-17 11:21:28,14.9832838,0.0002924,69.9997,328.5598,266.3182,93.7643,0.00016821,1.915e-05,0.0,0 STARLINK-5932,1 55943U 23037AF  23290.47324957  .00001915  00000-0  16821-3 0  9995,2 55943  69.9997 328.5598 0002924 266.3182  93.7643 14.98328380 33376,6950.198,96.107,574.095,570.031,0.0
55943.0,STARLINK-5932,PAYLOAD,2023-10-17 12:57:36,14.98332518,0.0002818,69.9996,328.3913,266.0571,94.0266,0.00010904,1.208e-05,0.0,0 STARLINK-5932,1 55943U 23037AF  23290.54000835  .00001208  00000-0  10904-3 0  9990,2 55943  69.9996 328.3913 0002818 266.0571  94.0266 14.98332518 33042,6950.185,96.107,574.009,570.092,0.0
55943.0,STARLINK-5932,PAYLOAD,2023-10-18 01:46:41,14.98325779,0.0002755,70.0007,327.0452,267.8566,92.2277,0.00012636,1.415e-05,0.0,0 STARLINK-5932,1 55943U 23037AF  23291.07409255  .00001415  00000-0  12636-3 0  9992,2 55943  70.0007 327.0452 0002755 267.8566  92.2277 14.98325779 33127,6950.206,96.107,573.986,570.156,0.0
55943.0,STARLINK-5932,PAYLOAD,2023-10-18 11:23:28,14.9838502,0.0003093,69.9998,326.0352,265.931,94.1495,-0.00088449,-0.00010646,0.0,0 STARLINK-5932,1 55943U 23037AF  23291.47463854 -.00010646  00000-0 -88449-3 0  9994,2 55943  69.9998 326.0352 0003093 265.9310  94.1495 14.98385020 33525,6950.023,96.103,574.037,569.738,0.0
55943.0,STARLINK-5932,PAYLOAD,2023-10-18 19:24:10,14.98333065,0.0002681,70.0003,325.1932,269.9582,90.127,-2.3964e-05,-3.79e-06,0.0,0 STARLINK-5932,1 55943U 23037AF  23291.80845030 -.00000379  00000-0 -23964-4 0  9995,2 55943  70.0003 325.1932 0002681 269.9582  90.1270 14.98333065 33570,6950.183,96.107,573.912,570.185,0.0
55943.0,STARLINK-5932,PAYLOAD,2023-10-19 11:25:30,14.98340628,0.0002653,70.0004,323.5102,260.578,99.5079,-9.8323e-05,-1.266e-05,0.0,0 STARLINK-5932,1 55943U 23037AF  23292.47604452 -.00001266  00000-0 -98323-4 0  9997,2 55943  70.0004 323.5102 0002653 260.5780  99.5079 14.98340628 33335,6950.16,96.106,573.869,570.181,0.0
